{
    "links": {
        "self": "http://www.neowsapp.com/rest/v1/neo/3472697?api_key=iIulBulltgU6a56xZRHN4H3l9WmuAYTsLGpBGhQ2"
    },
    "id": "3472697",
    "neo_reference_id": "3472697",
    "name": "(2009 UW87)",
    "designation": "2009 UW87",
    "nasa_jpl_url": "http://ssd.jpl.nasa.gov/sbdb.cgi?sstr=3472697",
    "absolute_magnitude_h": 28.0,
    "estimated_diameter": {
        "kilometers": {
            "estimated_diameter_min": 0.0066765941,
            "estimated_diameter_max": 0.0149293183
        },
        "meters": {
            "estimated_diameter_min": 6.676594135,
            "estimated_diameter_max": 14.9293183439
        },
        "miles": {
            "estimated_diameter_min": 0.004148642,
            "estimated_diameter_max": 0.0092766455
        },
        "feet": {
            "estimated_diameter_min": 21.9048371017,
            "estimated_diameter_max": 48.9807047955
        }
    },
    "is_potentially_hazardous_asteroid": false,
    "close_approach_data": [
        {
            "close_approach_date": "2009-10-31",
            "close_approach_date_full": "2009-Oct-31 02:45",
            "epoch_date_close_approach": 1256957100000,
            "relative_velocity": {
                "kilometers_per_second": "10.9647631466",
                "kilometers_per_hour": "39473.1473276304",
                "miles_per_hour": "24527.078682549"
            },
            "miss_distance": {
                "astronomical": "0.0044271211",
                "lunar": "1.7221501079",
                "kilometers": "662287.886792057",
                "miles": "411526.6101101066"
            },
            "orbiting_body": "Moon"
        },
        {
            "close_approach_date": "2009-10-31",
            "close_approach_date_full": "2009-Oct-31 11:39",
            "epoch_date_close_approach": 1256989140000,
            "relative_velocity": {
                "kilometers_per_second": "10.8836361463",
                "kilometers_per_hour": "39181.0901266303",
                "miles_per_hour": "24345.6056956276"
            },
            "miss_distance": {
                "astronomical": "0.0042299661",
                "lunar": "1.6454568129",
                "kilometers": "632793.918732207",
                "miles": "393199.9081781766"
            },
            "orbiting_body": "Earth"
        }
    ],
    "orbital_data": {
        "orbit_id": "8",
        "orbit_determination_date": "2017-04-06 08:59:20",
        "first_observation_date": "2009-10-27",
        "last_observation_date": "2009-10-31",
        "data_arc_in_days": 4,
        "observations_used": 21,
        "orbit_uncertainty": "8",
        "minimum_orbit_intersection": ".00329913",
        "jupiter_tisserand_invariant": "3.685",
        "epoch_osculation": "2455132.5",
        "eccentricity": ".5459759708912408",
        "semi_major_axis": "1.958421910859202",
        "inclination": "1.382977368685731",
        "ascending_node_longitude": "210.5402194019853",
        "orbital_period": "1001.054716005014",
        "perihelion_distance": ".88917060666317",
        "perihelion_argument": "233.1600217854067",
        "aphelion_distance": "3.027673215055234",
        "perihelion_time": "2455169.603853953931",
        "mean_anomaly": "346.656685983438",
        "mean_motion": ".3596207022895609",
        "equinox": "J2000",
        "orbit_class": {
            "orbit_class_type": "APO",
            "orbit_class_description": "Near-Earth asteroid orbits which cross the Earth’s orbit similar to that of 1862 Apollo",
            "orbit_class_range": "a (semi-major axis) > 1.0 AU; q (perihelion) < 1.017 AU"
        }
    },
    "is_sentry_object": false
}